<?xml version="1.0" encoding="UTF-8"?>
<ndm xmlns:xsi="http://www.w3.org/2001/XMLSchema-instance" xsi:noNamespaceSchemaLocation="https://sanaregistry.org/r/ndmxml_unqualified/ndmxml-2.0.0-master-2.0.xsd">
<omm id="CCSDS_OMM_VERS" version="2.0">
<header><CREATION_DATE/><ORIGINATOR/></header><body><segment><metadata><OBJECT_NAME>ONEWEB-0216</OBJECT_NAME><OBJECT_ID>2021-045AL</OBJECT_ID><CENTER_NAME>EARTH</CENTER_NAME><REF_FRAME>TEME</REF_FRAME><TIME_SYSTEM>UTC</TIME_SYSTEM><MEAN_ELEMENT_THEORY>SGP4</MEAN_ELEMENT_THEORY></metadata><data><meanElements><EPOCH>2024-04-19T22:22:00.755616</EPOCH><MEAN_MOTION>13.15548146</MEAN_MOTION><ECCENTRICITY>.0001651</ECCENTRICITY><INCLINATION>87.9031</INCLINATION><RA_OF_ASC_NODE>56.0741</RA_OF_ASC_NODE><ARG_OF_PERICENTER>76.3793</ARG_OF_PERICENTER><MEAN_ANOMALY>283.7521</MEAN_ANOMALY></meanElements><tleParameters><EPHEMERIS_TYPE>0</EPHEMERIS_TYPE><CLASSIFICATION_TYPE>U</CLASSIFICATION_TYPE><NORAD_CAT_ID>48801</NORAD_CAT_ID><ELEMENT_SET_NO>999</ELEMENT_SET_NO><REV_AT_EPOCH>14066</REV_AT_EPOCH><BSTAR>.1763E-3</BSTAR><MEAN_MOTION_DOT>.79E-6</MEAN_MOTION_DOT><MEAN_MOTION_DDOT>0</MEAN_MOTION_DDOT></tleParameters></data></segment></body></omm>
<omm id="CCSDS_OMM_VERS" version="2.0">
<header><CREATION_DATE/><ORIGINATOR/></header><body><segment><metadata><OBJECT_NAME>ONEWEB-0239</OBJECT_NAME><OBJECT_ID>2021-045AM</OBJECT_ID><CENTER_NAME>EARTH</CENTER_NAME><REF_FRAME>TEME</REF_FRAME><TIME_SYSTEM>UTC</TIME_SYSTEM><MEAN_ELEMENT_THEORY>SGP4</MEAN_ELEMENT_THEORY></metadata><data><meanElements><EPOCH>2024-04-19T22:28:51.624768</EPOCH><MEAN_MOTION>13.15547906</MEAN_MOTION><ECCENTRICITY>.0001905</ECCENTRICITY><INCLINATION>87.9040</INCLINATION><RA_OF_ASC_NODE>56.0441</RA_OF_ASC_NODE><ARG_OF_PERICENTER>113.0657</ARG_OF_PERICENTER><MEAN_ANOMALY>247.0675</MEAN_ANOMALY></meanElements><tleParameters><EPHEMERIS_TYPE>0</EPHEMERIS_TYPE><CLASSIFICATION_TYPE>U</CLASSIFICATION_TYPE><NORAD_CAT_ID>48802</NORAD_CAT_ID><ELEMENT_SET_NO>999</ELEMENT_SET_NO><REV_AT_EPOCH>14070</REV_AT_EPOCH><BSTAR>-.14864E-3</BSTAR><MEAN_MOTION_DOT>-.43E-6</MEAN_MOTION_DOT><MEAN_MOTION_DDOT>0</MEAN_MOTION_DDOT></tleParameters></data></segment></body></omm>
<omm id="CCSDS_OMM_VERS" version="2.0">
<header><CREATION_DATE/><ORIGINATOR/></header><body><segment><metadata><OBJECT_NAME>ONEWEB-0249</OBJECT_NAME><OBJECT_ID>2021-060A</OBJECT_ID><CENTER_NAME>EARTH</CENTER_NAME><REF_FRAME>TEME</REF_FRAME><TIME_SYSTEM>UTC</TIME_SYSTEM><MEAN_ELEMENT_THEORY>SGP4</MEAN_ELEMENT_THEORY></metadata><data><meanElements><EPOCH>2024-04-19T19:28:45.743520</EPOCH><MEAN_MOTION>13.16593923</MEAN_MOTION><ECCENTRICITY>.0001844</ECCENTRICITY><INCLINATION>87.9152</INCLINATION><RA_OF_ASC_NODE>25.6906</RA_OF_ASC_NODE><ARG_OF_PERICENTER>78.7168</ARG_OF_PERICENTER><MEAN_ANOMALY>281.4170</MEAN_ANOMALY></meanElements><tleParameters><EPHEMERIS_TYPE>0</EPHEMERIS_TYPE><CLASSIFICATION_TYPE>U</CLASSIFICATION_TYPE><NORAD_CAT_ID>48967</NORAD_CAT_ID><ELEMENT_SET_NO>999</ELEMENT_SET_NO><REV_AT_EPOCH>13587</REV_AT_EPOCH><BSTAR>.29479E-6</BSTAR><MEAN_MOTION_DOT>.13E-6</MEAN_MOTION_DOT><MEAN_MOTION_DDOT>0</MEAN_MOTION_DDOT></tleParameters></data></segment></body></omm>
<omm id="CCSDS_OMM_VERS" version="2.0">
<header><CREATION_DATE/><ORIGINATOR/></header><body><segment><metadata><OBJECT_NAME>ONEWEB-0250</OBJECT_NAME><OBJECT_ID>2021-060B</OBJECT_ID><CENTER_NAME>EARTH</CENTER_NAME><REF_FRAME>TEME</REF_FRAME><TIME_SYSTEM>UTC</TIME_SYSTEM><MEAN_ELEMENT_THEORY>SGP4</MEAN_ELEMENT_THEORY></metadata><data><meanElements><EPOCH>2024-04-20T04:42:46.269504</EPOCH><MEAN_MOTION>13.16593030</MEAN_MOTION><ECCENTRICITY>.0001773</ECCENTRICITY><INCLINATION>87.9153</INCLINATION><RA_OF_ASC_NODE>25.5977</RA_OF_ASC_NODE><ARG_OF_PERICENTER>89.3061</ARG_OF_PERICENTER><MEAN_ANOMALY>270.8273</MEAN_ANOMALY></meanElements><tleParameters><EPHEMERIS_TYPE>0</EPHEMERIS_TYPE><CLASSIFICATION_TYPE>U</CLASSIFICATION_TYPE><NORAD_CAT_ID>48968</NORAD_CAT_ID><ELEMENT_SET_NO>999</ELEMENT_SET_NO><REV_AT_EPOCH>13719</REV_AT_EPOCH><BSTAR>.29653E-3</BSTAR><MEAN_MOTION_DOT>.126E-5</MEAN_MOTION_DOT><MEAN_MOTION_DDOT>0</MEAN_MOTION_DDOT></tleParameters></data></segment></body></omm>
<omm id="CCSDS_OMM_VERS" version="2.0">
<header><CREATION_DATE/><ORIGINATOR/></header><body><segment><metadata><OBJECT_NAME>ONEWEB-0252</OBJECT_NAME><OBJECT_ID>2021-060D</OBJECT_ID><CENTER_NAME>EARTH</CENTER_NAME><REF_FRAME>TEME</REF_FRAME><TIME_SYSTEM>UTC</TIME_SYSTEM><MEAN_ELEMENT_THEORY>SGP4</MEAN_ELEMENT_THEORY></metadata><data><meanElements><EPOCH>2024-04-20T03:32:05.223552</EPOCH><MEAN_MOTION>13.16593389</MEAN_MOTION><ECCENTRICITY>.0001692</ECCENTRICITY><INCLINATION>87.9154</INCLINATION><RA_OF_ASC_NODE>25.6167</RA_OF_ASC_NODE><ARG_OF_PERICENTER>74.8773</ARG_OF_PERICENTER><MEAN_ANOMALY>285.2545</MEAN_ANOMALY></meanElements><tleParameters><EPHEMERIS_TYPE>0</EPHEMERIS_TYPE><CLASSIFICATION_TYPE>U</CLASSIFICATION_TYPE><NORAD_CAT_ID>48970</NORAD_CAT_ID><ELEMENT_SET_NO>999</ELEMENT_SET_NO><REV_AT_EPOCH>13725</REV_AT_EPOCH><BSTAR>.34873E-3</BSTAR><MEAN_MOTION_DOT>.146E-5</MEAN_MOTION_DOT><MEAN_MOTION_DDOT>0</MEAN_MOTION_DDOT></tleParameters></data></segment></body></omm>
<omm id="CCSDS_OMM_VERS" version="2.0">
<header><CREATION_DATE/><ORIGINATOR/></header><body><segment><metadata><OBJECT_NAME>ONEWEB-0253</OBJECT_NAME><OBJECT_ID>2021-060E</OBJECT_ID><CENTER_NAME>EARTH</CENTER_NAME><REF_FRAME>TEME</REF_FRAME><TIME_SYSTEM>UTC</TIME_SYSTEM><MEAN_ELEMENT_THEORY>SGP4</MEAN_ELEMENT_THEORY></metadata><data><meanElements><EPOCH>2024-04-20T03:16:07.911552</EPOCH><MEAN_MOTION>13.16594786</MEAN_MOTION><ECCENTRICITY>.0001546</ECCENTRICITY><INCLINATION>87.9153</INCLINATION><RA_OF_ASC_NODE>25.6323</RA_OF_ASC_NODE><ARG_OF_PERICENTER>82.2505</ARG_OF_PERICENTER><MEAN_ANOMALY>277.8802</MEAN_ANOMALY></meanElements><tleParameters><EPHEMERIS_TYPE>0</EPHEMERIS_TYPE><CLASSIFICATION_TYPE>U</CLASSIFICATION_TYPE><NORAD_CAT_ID>48971</NORAD_CAT_ID><ELEMENT_SET_NO>999</ELEMENT_SET_NO><REV_AT_EPOCH>13717</REV_AT_EPOCH><BSTAR>.62266E-3</BSTAR><MEAN_MOTION_DOT>.251E-5</MEAN_MOTION_DOT><MEAN_MOTION_DDOT>0</MEAN_MOTION_DDOT></tleParameters></data></segment></body></omm>
<omm id="CCSDS_OMM_VERS" version="2.0">
<header><CREATION_DATE/><ORIGINATOR/></header><body><segment><metadata><OBJECT_NAME>ONEWEB-0254</OBJECT_NAME><OBJECT_ID>2021-060F</OBJECT_ID><CENTER_NAME>EARTH</CENTER_NAME><REF_FRAME>TEME</REF_FRAME><TIME_SYSTEM>UTC</TIME_SYSTEM><MEAN_ELEMENT_THEORY>SGP4</MEAN_ELEMENT_THEORY></metadata><data><meanElements><EPOCH>2024-04-19T20:12:04.639104</EPOCH><MEAN_MOTION>13.16593965</MEAN_MOTION><ECCENTRICITY>.0001525</ECCENTRICITY><INCLINATION>87.9153</INCLINATION><RA_OF_ASC_NODE>25.6677</RA_OF_ASC_NODE><ARG_OF_PERICENTER>85.9888</ARG_OF_PERICENTER><MEAN_ANOMALY>274.1417</MEAN_ANOMALY></meanElements><tleParameters><EPHEMERIS_TYPE>0</EPHEMERIS_TYPE><CLASSIFICATION_TYPE>U</CLASSIFICATION_TYPE><NORAD_CAT_ID>48972</NORAD_CAT_ID><ELEMENT_SET_NO>999</ELEMENT_SET_NO><REV_AT_EPOCH>13585</REV_AT_EPOCH><BSTAR>.49277E-4</BSTAR><MEAN_MOTION_DOT>.32E-6</MEAN_MOTION_DOT><MEAN_MOTION_DDOT>0</MEAN_MOTION_DDOT></tleParameters></data></segment></body></omm>
<omm id="CCSDS_OMM_VERS" version="2.0">
<header><CREATION_DATE/><ORIGINATOR/></header><body><segment><metadata><OBJECT_NAME>ONEWEB-0255</OBJECT_NAME><OBJECT_ID>2021-060G</OBJECT_ID><CENTER_NAME>EARTH</CENTER_NAME><REF_FRAME>TEME</REF_FRAME><TIME_SYSTEM>UTC</TIME_SYSTEM><MEAN_ELEMENT_THEORY>SGP4</MEAN_ELEMENT_THEORY></metadata><data><meanElements><EPOCH>2024-04-20T06:13:58.041120</EPOCH><MEAN_MOTION>13.16593667</MEAN_MOTION><ECCENTRICITY>.000184</ECCENTRICITY><INCLINATION>87.9154</INCLINATION><RA_OF_ASC_NODE>25.6194</RA_OF_ASC_NODE><ARG_OF_PERICENTER>84.3507</ARG_OF_PERICENTER><MEAN_ANOMALY>275.7834</MEAN_ANOMALY></meanElements><tleParameters><EPHEMERIS_TYPE>0</EPHEMERIS_TYPE><CLASSIFICATION_TYPE>U</CLASSIFICATION_TYPE><NORAD_CAT_ID>48973</NORAD_CAT_ID><ELEMENT_SET_NO>999</ELEMENT_SET_NO><REV_AT_EPOCH>13727</REV_AT_EPOCH><BSTAR>.33322E-4</BSTAR><MEAN_MOTION_DOT>.26E-6</MEAN_MOTION_DOT><MEAN_MOTION_DDOT>0</MEAN_MOTION_DDOT></tleParameters></data></segment></body></omm>

</ndm>
