ONEWEB-0216             
1 48801U 21045AL  24110.93195319  .00000079  00000+0  17630-3 0  9996
2 48801  87.9031  56.0741 0001651  76.3793 283.7521 13.15548146140665
ONEWEB-0239             
1 48802U 21045AM  24110.93670862 -.00000043  00000+0 -14864-3 0  9997
2 48802  87.9040  56.0441 0001905 113.0657 247.0675 13.15547906140704
ONEWEB-0249             
1 48967U 21060A   24110.81164055  .00000013  00000+0  29479-6 0  9991
2 48967  87.9152  25.6906 0001844  78.7168 281.4170 13.16593923135879
ONEWEB-0250             
1 48968U 21060B   24111.19636886  .00000126  00000+0  29653-3 0  9996
2 48968  87.9153  25.5977 0001773  89.3061 270.8273 13.16593030137191
ONEWEB-0252             
1 48970U 21060D   24111.14728268  .00000146  00000+0  34873-3 0  9992
2 48970  87.9154  25.6167 0001692  74.8773 285.2545 13.16593389137252
ONEWEB-0253             
1 48971U 21060E   24111.13620268  .00000251  00000+0  62266-3 0  9997
2 48971  87.9153  25.6323 0001546  82.2505 277.8802 13.16594786137176
ONEWEB-0254             
1 48972U 21060F   24110.84172036  .00000032  00000+0  49277-4 0  9995
2 48972  87.9153  25.6677 0001525  85.9888 274.1417 13.16593965135853
ONEWEB-0255             
1 48973U 21060G   24111.25969955  .00000026  00000+0  33322-4 0  9993
2 48973  87.9154  25.6194 0001840  84.3507 275.7834 13.16593667137277
